[
    {
        "Altitude(m)": 611967.1548275523,
        "Argument of Periapsis(deg)": 0.0,
        "Eccentricity": 0.0,
        "Inclination(deg)": 60.0,
        "Latitude(deg)": 59.14008850903099,
        "Longitude(deg)": -33.908065028650554,
        "Mean Anomaly(deg)": -261.8182,
        "RAAN(deg)": 320.0,
        "Satellite Name": "Test1 1414",
        "Satellite Number": 1414,
        "Semi-Major Axis(m)": 6980739.136638005,
        "Time(s)": 0
    },
    {
        "Altitude(m)": 611934.3551031546,
        "Argument of Periapsis(deg)": 0.00010418945913296404,
        "Eccentricity": 0.0,
        "Inclination(deg)": 60.0,
        "Latitude(deg)": 58.986452147628775,
        "Longitude(deg)": -32.78482090441106,
        "Mean Anomaly(deg)": -261.1980938545382,
        "RAAN(deg)": 319.9995799508602,
        "Satellite Name": "Test1 1414",
        "Satellite Number": 1414,
        "Semi-Major Axis(m)": 6980739.136638005,
        "Time(s)": 10
    }
]